INTELSAT 902 (IS-902)   
1 26900U 01039A   26201.17428920 -.00000289  00000+0  00000+0 0  9992
2 26900   6.1970  71.3755 0004143  48.2762 190.9431  1.00270817 91026
INTELSAT 904 (IS-904)   
1 27380U 02007A   26200.40023269 -.00000234  00000+0  00000+0 0  9993
2 27380   6.9984  68.7946 0005438  27.8388 313.1487  1.00270287 52083
DIRECTV 5 (TEMPO 1)     
1 27426U 02023A   26201.27024425 -.00000062  00000+0  00000+0 0  9992
2 27426   4.9603  74.8965 0003073  38.8010 171.5267  1.00271977 88455
INTELSAT 905 (IS-905)   
1 27438U 02027A   26201.10570035  .00000087  00000+0  00000+0 0  9990
2 27438   6.8340  69.3997 0003611  49.8706  79.4617  1.00273493 51699
GALAXY 3C (G-3C)        
1 27445U 02030A   26201.24322191 -.00000157  00000+0  00000+0 0  9994
2 27445   3.8177  77.5506 0001753  30.2607 182.9246  1.00271237 46829
INTELSAT 906 (IS-906)   
1 27513U 02041A   26201.20329311  .00000007  00000+0  00000+0 0  9992
2 27513   5.8825  72.5101 0003457  29.5232 333.2928  1.00270956 87360
GALAXY 13 (HORIZONS-1)  
1 27954U 03044A   26201.29706708  .00000130  00000+0  00000+0 0  9990
2 27954   1.5017  83.4321 0002089  39.4247 132.1575  1.00273574 46904
INTELSAT 10-02          
1 28358U 04022A   26201.04786112 -.00000014  00000+0  00000+0 0  9998
2 28358   0.0538 253.4772 0000222 309.5985 110.9753  1.00272053 80889
DIRECTV 8               
1 28659U 05019A   26201.23380727 -.00000001  00000+0  00000+0 0  9998
2 28659   0.0192  64.5817 0003109  59.6642 138.8770  1.00272634 77407
GALAXY 28 (G-28)        
1 28702U 05022A   26201.25656248 -.00000204  00000+0  00000+0 0  9992
2 28702   3.3806  78.5215 0002437  37.3715 247.4043  1.00270962 52302
GALAXY 16 (G-16)        
1 29236U 06023A   26201.28525940 -.00000129  00000+0  00000+0 0  9990
2 29236   0.0250 139.4045 0002701 340.1404 182.1953  1.00271658 73305
DIRECTV 9S              
1 29494U 06043A   26201.29426245 -.00000117  00000+0  00000+0 0  9994
2 29494   2.5042  80.5051 0005113  33.7269 188.5676  1.00271702 51717
GALAXY 17 (G-17)        
1 31307U 07016B   26201.28635713 -.00000210  00000+0  00000+0 0  9996
2 31307   3.0534  79.4846 0003760  38.1962 198.4396  1.00271026 70134
INTELSAT 11 (IS-11)     
1 32253U 07044B   26201.06017046 -.00000235  00000+0  00000+0 0  9994
2 32253   3.6490  78.2710 0004424  99.2747 123.2027  0.99053109 68777
HORIZONS-2              
1 32388U 07063B   26201.25118584 -.00000257  00000+0  00000+0 0  9998
2 32388   2.6854  80.2224 0003633  19.3413 215.0883  1.00272600 68149
DIRECTV 11              
1 32729U 08013A   26201.28525926 -.00000127  00000+0  00000+0 0  9994
2 32729   0.0025 191.2066 0000080 259.1433 211.2091  1.00271427 45922
GALAXY 18 (G-18)        
1 32951U 08024A   26201.26471609  .00000023  00000+0  00000+0 0  9993
2 32951   0.0094  14.0767 0002925 106.0654 150.1832  1.00273804 46184
GALAXY 19 (G-19)        
1 33376U 08045A   26201.28741897 -.00000141  00000+0  00000+0 0  9991
2 33376   0.0655 254.5331 0002527 235.4025 174.5924  1.00271730 65239
FM-5                    
1 35493U 09034A   26201.24563966 -.00000202  00000+0  00000+0 0  9995
2 35493   0.0420 249.2326 0000780 130.1727 280.8727  1.00270279 46974
INTELSAT 14 (IS-14)     
1 36097U 09064A   26201.29770236 -.00000275  00000+0  00000+0 0  9994
2 36097   0.0164  48.3096 0002545  73.2667 238.6632  1.00272118 60935
INTELSAT 15 (IS-15)     
1 36106U 09067A   26201.13516823 -.00000187  00000+0  00000+0 0  9993
2 36106   0.0054  15.6665 0002271 101.4132 314.6391  1.00272438 41559
DIRECTV 12              
1 36131U 09075A   26201.24015558 -.00000105  00000+0  00000+0 0  9991
2 36131   0.0414 227.9653 0000264 338.3959  75.3850  1.00272539 46884
INTELSAT 16 (IS-16)     
1 36397U 10006A   26201.28962656 -.00000246  00000+0  00000+0 0  9991
2 36397   0.0220 307.9509 0002641 190.3938 187.7741  1.00271179 59987
XM-5                    
1 37185U 10053A   26201.29431742 -.00000025  00000+0  00000+0 0  9992
2 37185   0.0625 264.9333 0001261 317.1370  66.7572  1.00272284 57811
INTELSAT 17 (IS-17)     
1 37238U 10065B   26201.13240150 -.00000004  00000+0  00000+0 0  9995
2 37238   0.0102  95.2952 0002575  36.4198 279.8601  1.00272739 53574
INTELSAT 28 (IS-28)     
1 37392U 11016A   26201.25560913 -.00000228  00000+0  00000+0 0  9996
2 37392   1.8897  82.2239 0003902  42.1766 233.9417  1.00271583 53616
INTELSAT 18 (IS-18)     
1 37834U 11056A   26201.08356795  .00000050  00000+0  00000+0 0  9995
2 37834   0.0360 245.6955 0001879 239.6167  22.6243  1.00270625 54147
INTELSAT 22 (IS-22)     
1 38098U 12011A   26201.19905976 -.00000061  00000+0  00000+0 0  9996
2 38098   0.0228  65.4634 0001843  67.0495 309.2262  1.00272094  7519
INTELSAT 19 (IS-19)     
1 38356U 12030A   26201.32523845 -.00000058  00000+0  00000+0 0  9996
2 38356   0.0162  39.5253 0003090  78.2946 103.3523  1.00272698 50783
INTELSAT 20 (IS-20)     
1 38740U 12043A   26201.13292150 -.00000026  00000+0  00000+0 0  9993
2 38740   0.0144  73.5881 0001198 115.8285 224.8430  1.00267871 51072
INTELSAT 21 (IS-21)     
1 38749U 12045A   26201.29800010 -.00000287  00000+0  00000+0 0  9990
2 38749   0.0413 246.2895 0001776 243.0938 217.9746  1.00271607 50855
